[{"OBJECT_NAME":"SHIJIAN-6 03B (SJ-6 03B)","OBJECT_ID":"2008-053B","EPOCH":"2026-03-09T23:28:00.216192","MEAN_MOTION":15.03879314,"ECCENTRICITY":0.00200774,"INCLINATION":97.8673,"RA_OF_ASC_NODE":87.2117,"ARG_OF_PERICENTER":21.0315,"MEAN_ANOMALY":339.1731,"EPHEMERIS_TYPE":0,"CLASSIFICATION_TYPE":"U","NORAD_CAT_ID":33409,"ELEMENT_SET_NO":999,"REV_AT_EPOCH":94783,"BSTAR":0.00032650966,"MEAN_MOTION_DOT":4.452e-5,"MEAN_MOTION_DDOT":0},{"OBJECT_NAME":"STARLINK-35406","OBJECT_ID":"2025-218E","EPOCH":"2026-03-09T14:16:40.761408","MEAN_MOTION":15.05646507,"ECCENTRICITY":0.0003028,"INCLINATION":97.602,"RA_OF_ASC_NODE":292.8324,"ARG_OF_PERICENTER":71.6843,"MEAN_ANOMALY":288.4713,"EPHEMERIS_TYPE":0,"CLASSIFICATION_TYPE":"U","NORAD_CAT_ID":65795,"ELEMENT_SET_NO":999,"REV_AT_EPOCH":2495,"BSTAR":0.00016128,"MEAN_MOTION_DOT":2.267e-5,"MEAN_MOTION_DDOT":0}]
